SPACEXODC_L_00006051-31
1 12280U 26142XT  26075.70061343  .00000000  00000+0  00000-0 0  9991
2 12280  30.0000  53.4125 0000000   0.0000 244.7478 13.98210060    15
SPACEXODC_L_00006051-32
1 12281U 26611OU  26075.70061343  .00000000  00000+0  00000-0 0  9993
2 12281  30.0000  53.4125 0000000   0.0000 252.7478 13.98210060    15
SPACEXODC_L_00006051-33
1 12282U 25632UF  26075.70061343  .00000000  00000+0  00000-0 0  9996
2 12282  30.0000  53.4125 0000000   0.0000 260.7478 13.98210060    15
SPACEXODC_L_00006051-34
1 12283U 23693FW  26075.70061343  .00000000  00000+0  00000-0 0  9992
2 12283  30.0000  53.4125 0000000   0.0000 268.7478 13.98210060    14
SPACEXODC_L_00006051-35
1 12284U 26245WR  26075.70061343  .00000000  00000+0  00000-0 0  9999
2 12284  30.0000  53.4125 0000000   0.0000 276.7478 13.98210060    14
SPACEXODC_L_00006051-36
1 12285U 26272VL  26075.70061343  .00000000  00000+0  00000-0 0  9990
2 12285  30.0000  53.4125 0000000   0.0000 284.7478 13.98210060    14
SPACEXODC_L_00006051-37
1 12286U 22741IR  26075.70061343  .00000000  00000+0  00000-0 0  9998
2 12286  30.0000  53.4125 0000000   0.0000 292.7478 13.98210060    14
SPACEXODC_L_00006051-38
1 12287U 22847WA  26075.70061343  .00000000  00000+0  00000-0 0  9996
2 12287  30.0000  53.4125 0000000   0.0000 300.7478 13.98210060    15
SPACEXODC_L_00006051-39
1 12288U 22265EY  26075.70061343  .00000000  00000+0  00000-0 0  9991
2 12288  30.0000  53.4125 0000000   0.0000 308.7478 13.98210060    14
SPACEXODC_L_00006051-40
1 12289U 23202FG  26075.70061343  .00000000  00000+0  00000-0 0  9994
2 12289  30.0000  53.4125 0000000   0.0000 316.7478 13.98210060    14
SPACEXODC_L_00006051-41
1 12290U 26143OT  26075.70061343  .00000000  00000+0  00000-0 0  9993
2 12290  30.0000  53.4125 0000000   0.0000 324.7478 13.98210060    15
SPACEXODC_L_00006051-42
1 12291U 23906WT  26075.70061343  .00000000  00000+0  00000-0 0  9998
2 12291  30.0000  53.4125 0000000   0.0000 332.7478 13.98210060    15
SPACEXODC_L_00006051-43
1 12292U 24575LP  26075.70061343  .00000000  00000+0  00000-0 0  9992
2 12292  30.0000  53.4125 0000000   0.0000 340.7478 13.98210060    15
SPACEXODC_L_00006051-44
1 12293U 25941UN  26075.70061343  .00000000  00000+0  00000-0 0  9991
2 12293  30.0000  53.4125 0000000   0.0000 348.7478 13.98210060    14
SPACEXODC_L_00006051-45
1 12294U 23440LG  26075.70061343  .00000000  00000+0  00000-0 0  9994
2 12294  30.0000  53.4125 0000000   0.0000 356.7478 13.98210060    14
SPACEXODC_L_00006052-01
1 12295U 26107VV  26075.70061343  .00000000  00000+0  00000-0 0  9998
2 12295  30.0000  54.4807 0000000   0.0000   4.8427 13.98210060    18
SPACEXODC_L_00006052-02
1 12296U 22549WX  26075.70061343  .00000000  00000+0  00000-0 0  9995
2 12296  30.0000  54.4807 0000000   0.0000  12.8427 13.98210060    18
SPACEXODC_L_00006052-03
1 12297U 23486QT  26075.70061343  .00000000  00000+0  00000-0 0  9997
2 12297  30.0000  54.4807 0000000   0.0000  20.8427 13.98210060    18
SPACEXODC_L_00006052-04
1 12298U 23918RY  26075.70061343  .00000000  00000+0  00000-0 0  9998
2 12298  30.0000  54.4807 0000000   0.0000  28.8427 13.98210060    17
SPACEXODC_L_00006052-05
1 12299U 26349QW  26075.70061343  .00000000  00000+0  00000-0 0  9990
2 12299  30.0000  54.4807 0000000   0.0000  36.8427 13.98210060    17
SPACEXODC_L_00006052-06
1 12300U 25485ZS  26075.70061343  .00000000  00000+0  00000-0 0  9993
2 12300  30.0000  54.4807 0000000   0.0000  44.8427 13.98210060    19
SPACEXODC_L_00006052-07
1 12301U 22804JB  26075.70061343  .00000000  00000+0  00000-0 0  9996
2 12301  30.0000  54.4807 0000000   0.0000  52.8427 13.98210060    19
SPACEXODC_L_00006052-08
1 12302U 25215LK  26075.70061343  .00000000  00000+0  00000-0 0  9996
2 12302  30.0000  54.4807 0000000   0.0000  60.8427 13.98210060    19
SPACEXODC_L_00006052-09
1 12303U 23172WB  26075.70061343  .00000000  00000+0  00000-0 0  9997
2 12303  30.0000  54.4807 0000000   0.0000  68.8427 13.98210060    18
SPACEXODC_L_00006052-10
1 12304U 24845CR  26075.70061343  .00000000  00000+0  00000-0 0  9996
2 12304  30.0000  54.4807 0000000   0.0000  76.8427 13.98210060    18
SPACEXODC_L_00006052-11
1 12305U 22749AP  26075.70061343  .00000000  00000+0  00000-0 0  9998
2 12305  30.0000  54.4807 0000000   0.0000  84.8427 13.98210060    18
SPACEXODC_L_00006052-12
1 12306U 24848TN  26075.70061343  .00000000  00000+0  00000-0 0  9991
2 12306  30.0000  54.4807 0000000   0.0000  92.8427 13.98210060    18
SPACEXODC_L_00006052-13
1 12307U 22063RD  26075.70061343  .00000000  00000+0  00000-0 0  9999
2 12307  30.0000  54.4807 0000000   0.0000 100.8427 13.98210060    19
SPACEXODC_L_00006052-14
1 12308U 25582RF  26075.70061343  .00000000  00000+0  00000-0 0  9999
2 12308  30.0000  54.4807 0000000   0.0000 108.8427 13.98210060    18
SPACEXODC_L_00006052-15
1 12309U 22696ED  26075.70061343  .00000000  00000+0  00000-0 0  9993
2 12309  30.0000  54.4807 0000000   0.0000 116.8427 13.98210060    18
SPACEXODC_L_00006052-16
1 12310U 25489AA  26075.70061343  .00000000  00000+0  00000-0 0  9998
2 12310  30.0000  54.4807 0000000   0.0000 124.8427 13.98210060    19
SPACEXODC_L_00006052-17
1 12311U 24065MZ  26075.70061343  .00000000  00000+0  00000-0 0  9998
2 12311  30.0000  54.4807 0000000   0.0000 132.8427 13.98210060    19
SPACEXODC_L_00006052-18
1 12312U 23357LM  26075.70061343  .00000000  00000+0  00000-0 0  9992
2 12312  30.0000  54.4807 0000000   0.0000 140.8427 13.98210060    19
SPACEXODC_L_00006052-19
1 12313U 24535UU  26075.70061343  .00000000  00000+0  00000-0 0  9992
2 12313  30.0000  54.4807 0000000   0.0000 148.8427 13.98210060    18
SPACEXODC_L_00006052-20
1 12314U 24454WY  26075.70061343  .00000000  00000+0  00000-0 0  9993
2 12314  30.0000  54.4807 0000000   0.0000 156.8427 13.98210060    18
SPACEXODC_L_00006052-21
1 12315U 24978LA  26075.70061343  .00000000  00000+0  00000-0 0  9995
2 12315  30.0000  54.4807 0000000   0.0000 164.8427 13.98210060    18
SPACEXODC_L_00006052-22
1 12316U 24343SV  26075.70061343  .00000000  00000+0  00000-0 0  9992
2 12316  30.0000  54.4807 0000000   0.0000 172.8427 13.98210060    18
SPACEXODC_L_00006052-23
1 12317U 23349ZV  26075.70061343  .00000000  00000+0  00000-0 0  9998
2 12317  30.0000  54.4807 0000000   0.0000 180.8427 13.98210060    18
SPACEXODC_L_00006052-24
1 12318U 23604EO  26075.70061343  .00000000  00000+0  00000-0 0  9993
2 12318  30.0000  54.4807 0000000   0.0000 188.8427 13.98210060    17
SPACEXODC_L_00006052-25
1 12319U 23866MT  26075.70061343  .00000000  00000+0  00000-0 0  9994
2 12319  30.0000  54.4807 0000000   0.0000 196.8427 13.98210060    17
SPACEXODC_L_00006052-26
1 12320U 25837IG  26075.70061343  .00000000  00000+0  00000-0 0  9996
2 12320  30.0000  54.4807 0000000   0.0000 204.8427 13.98210060    19
SPACEXODC_L_00006052-27
1 12321U 22133SH  26075.70061343  .00000000  00000+0  00000-0 0  9993
2 12321  30.0000  54.4807 0000000   0.0000 212.8427 13.98210060    19
SPACEXODC_L_00006052-28
1 12322U 22885HF  26075.70061343  .00000000  00000+0  00000-0 0  9998
2 12322  30.0000  54.4807 0000000   0.0000 220.8427 13.98210060    19
SPACEXODC_L_00006052-29
1 12323U 24411IO  26075.70061343  .00000000  00000+0  00000-0 0  9996
2 12323  30.0000  54.4807 0000000   0.0000 228.8427 13.98210060    18
SPACEXODC_L_00006052-30
1 12324U 25444OI  26075.70061343  .00000000  00000+0  00000-0 0  9994
2 12324  30.0000  54.4807 0000000   0.0000 236.8427 13.98210060    18
SPACEXODC_L_00006052-31
1 12325U 22812OS  26075.70061343  .00000000  00000+0  00000-0 0  9991
2 12325  30.0000  54.4807 0000000   0.0000 244.8427 13.98210060    18
SPACEXODC_L_00006052-32
1 12326U 22686V   26075.70061343  .00000000  00000+0  00000-0 0  9991
2 12326  30.0000  54.4807 0000000   0.0000 252.8427 13.98210060    18
SPACEXODC_L_00006052-33
1 12327U 24115QO  26075.70061343  .00000000  00000+0  00000-0 0  9991
2 12327  30.0000  54.4807 0000000   0.0000 260.8427 13.98210060    18
SPACEXODC_L_00006052-34
1 12328U 22715TV  26075.70061343  .00000000  00000+0  00000-0 0  9996
2 12328  30.0000  54.4807 0000000   0.0000 268.8427 13.98210060    17
SPACEXODC_L_00006052-35
1 12329U 23701KA  26075.70061343  .00000000  00000+0  00000-0 0  9993
2 12329  30.0000  54.4807 0000000   0.0000 276.8427 13.98210060    17
SPACEXODC_L_00006052-36
1 12330U 23074PW  26075.70061343  .00000000  00000+0  00000-0 0  9998
2 12330  30.0000  54.4807 0000000   0.0000 284.8427 13.98210060    18
SPACEXODC_L_00006052-37
1 12331U 26871MN  26075.70061343  .00000000  00000+0  00000-0 0  9997
2 12331  30.0000  54.4807 0000000   0.0000 292.8427 13.98210060    18
SPACEXODC_L_00006052-38
1 12332U 23834XE  26075.70061343  .00000000  00000+0  00000-0 0  9994
2 12332  30.0000  54.4807 0000000   0.0000 300.8427 13.98210060    19
SPACEXODC_L_00006052-39
1 12333U 25738RA  26075.70061343  .00000000  00000+0  00000-0 0  9990
2 12333  30.0000  54.4807 0000000   0.0000 308.8427 13.98210060    18
SPACEXODC_L_00006052-40
1 12334U 25419YO  26075.70061343  .00000000  00000+0  00000-0 0  9997
2 12334  30.0000  54.4807 0000000   0.0000 316.8427 13.98210060    18
SPACEXODC_L_00006052-41
1 12335U 24672CE  26075.70061343  .00000000  00000+0  00000-0 0  9998
2 12335  30.0000  54.4807 0000000   0.0000 324.8427 13.98210060    18
SPACEXODC_L_00006052-42
1 12336U 23664BC  26075.70061343  .00000000  00000+0  00000-0 0  9999
2 12336  30.0000  54.4807 0000000   0.0000 332.8427 13.98210060    18
SPACEXODC_L_00006052-43
1 12337U 25116LH  26075.70061343  .00000000  00000+0  00000-0 0  9994
2 12337  30.0000  54.4807 0000000   0.0000 340.8427 13.98210060    18
SPACEXODC_L_00006052-44
1 12338U 23008PY  26075.70061343  .00000000  00000+0  00000-0 0  9993
2 12338  30.0000  54.4807 0000000   0.0000 348.8427 13.98210060    17
SPACEXODC_L_00006052-45
1 12339U 22928TC  26075.70061343  .00000000  00000+0  00000-0 0  9994
2 12339  30.0000  54.4807 0000000   0.0000 356.8427 13.98210060    17
